STARLINK-31765          
1 59604U 24080D   25137.64075310  .00013067  00000+0  31949-3 0  9997
2 59604  42.9982 269.1700 0000961 266.4678  93.6069 15.40703138 59267
STARLINK-31767          
1 59605U 24080E   25137.64019090  .00001038  00000+0  47229-4 0  9995
2 59605  43.0015 270.0268 0001597 260.9027  99.1644 15.27584739 59258
STARLINK-31782          
1 59606U 24080F   25137.46026098  .00000309  00000+0  20751-4 0  9993
2 59606  43.0014 274.7081 0001627 263.6399  96.4267 15.27577930 59186
STARLINK-31755          
1 59607U 24080G   25137.39872643  .00000759  00000+0  37088-4 0  9991
2 59607  43.0005 275.1088 0001498 253.9456 106.1230 15.27583606 59176
STARLINK-31585          
1 59608U 24080H   25137.40139993  .00022302  00000+0  54021-3 0  9991
2 59608  43.0012 269.9415 0001170 275.0495  85.0227 15.40665744 59243
STARLINK-31667          
1 59609U 24080J   25137.40817372  .00000596  00000+0  21544-4 0  9992
2 59609  43.0042 269.9978 0002486 299.8407  60.2202 15.40699964 59237
STARLINK-31729          
1 59610U 24080K   25137.63625119 -.00006623  00000+0 -15121-3 0  9997
2 59610  43.0027 269.1313 0001417 274.4058  85.6636 15.40740606 59266
STARLINK-31448          
1 59611U 24080L   25137.38591051  .00000164  00000+0  11200-4 0  9994
2 59611  43.0026 270.6931 0001901 269.5703  90.4936 15.40699379 59222
STARLINK-31748          
1 59612U 24080M   25137.63402613  .00003071  00000+0  80780-4 0  9997
2 59612  43.0039 269.1166 0001503 276.3386  83.7299 15.40689301 60437
STARLINK-31746          
1 59613U 24080N   25137.40257398  .00001648  00000+0  69427-4 0  9994
2 59613  43.0023 275.1084 0001791 265.3186  94.7461 15.27568589 59173
STARLINK-31762          
1 59614U 24080P   25137.58335648 -.00115861  00000+0 -42596-2 0  9990
2 59614  43.0007 270.2980 0001233 271.9129 156.4141 15.27636516  5963
STARLINK-31761          
1 59615U 24080Q   25137.40434259 -.00000409  00000+0 -53304-5 0  9993
2 59615  42.9994 271.6339 0001110 264.4786  95.5939 15.27577223 59214
STARLINK-31768          
1 59616U 24080R   25137.58335648 -.00123071  00000+0 -44143-2 0  9994
2 59616  43.0006 270.2822 0001516 275.0475 159.8968 15.28477353  5969
STARLINK-31769          
1 59617U 24080S   25137.58335648 -.00131218  00000+0 -48341-2 0  9991
2 59617  42.9985 270.4976 0001128 269.0632  74.3945 15.27645856  5761
STARLINK-31784          
1 59618U 24080T   25137.38844747  .00002366  00000+0  95465-4 0  9995
2 59618  42.9996 275.0269 0001463 274.5514  85.5170 15.27578170 59174
STARLINK-31777          
1 59619U 24080U   25136.73844435  .00000964  00000+0  44541-4 0  9999
2 59619  42.9947 278.7533 0000942  49.4855 310.6079 15.27576228 59074
STARLINK-31771          
1 59620U 24080V   25137.40049212 -.00000263  00000+0 -20154-7 0  9997
2 59620  43.0031 271.6228 0001719 270.0791  89.9864 15.27571409 59219
STARLINK-31758          
1 59621U 24080W   25137.44848465 -.00013209  00000+0 -30864-3 0  9998
2 59621  43.0049 270.3039 0002121 276.2734  83.7881 15.40779763 59239
STARLINK-31774          
1 59622U 24080X   25137.63849924  .00001003  00000+0  31279-4 0  9990
2 59622  43.0035 269.1461 0001582 267.9123  92.1552 15.40706387 59263
STARLINK-31763          
1 59623U 24080Y   25137.58335648  .00011159  00000+0  41469-3 0  9992
2 59623  42.9984 270.5470 0001161 294.6040  27.5190 15.27557238  5961
STARLINK-31749          
1 59631U 24082A   25137.34409184  .00008832  00000+0  33000-3 0  9990
2 59631  43.0031  13.0760 0000942 287.5967  72.4782 15.27590196 59697
STARLINK-31781          
1 59632U 24082B   25137.30757090  .00004949  00000+0  18920-3 0  9998
2 59632  43.0062 359.5029 0001295 271.3276  88.7428 15.27585517 59681
STARLINK-31541          
1 59633U 24082C   25137.35533911 -.00003262  00000+0 -10908-3 0  9995
2 59633  43.0028   6.2296 0001553 252.1718 107.8964 15.27570391 59762
STARLINK-31797          
1 59634U 24082D   25137.36336155  .00003521  00000+0  13742-3 0  9993
2 59634  43.0016  13.2231 0001125 303.7808  56.2937 15.27579426 59535
STARLINK-31798          
1 59635U 24082E   25137.06854802 -.00011408  00000+0 -40584-3 0  9994
2 59635  43.0016  15.3051 0001924 268.8335  91.2297 15.27564136 59442
STARLINK-31802          
1 59636U 24082F   25137.06084798  .00001783  00000+0  74288-4 0  9996
2 59636  43.0014  15.2501 0001210 240.6261 119.4470 15.27580334 59448
STARLINK-31791          
1 59637U 24082G   25137.35180118 -.00001097  00000+0 -30329-4 0  9990
2 59637  43.0041  13.1348 0001304 274.6282  85.4421 15.27592045 59494
STARLINK-31727          
1 59638U 24082H   25137.00702441  .00002335  00000+0  94333-4 0  9991
2 59638  43.0007  15.7034 0001115 271.4395  88.6329 15.27580367 59482
STARLINK-31807          
1 59639U 24082J   25137.06470272  .00000469  00000+0  26566-4 0  9991
2 59639  43.0020  15.2769 0001079 251.5375 108.5359 15.27577161 59443
STARLINK-31806          
1 59640U 24082K   25137.37364132 -.00000495  00000+0 -84572-5 0  9997
2 59640  43.0044  13.2946 0001389 265.2447  94.8246 15.27580783 59493
STARLINK-31804          
1 59641U 24082L   25137.34793819  .00002792  00000+0  11094-3 0  9990
2 59641  43.0066  13.1032 0001282 284.3160  75.7549 15.27577605 59492
STARLINK-31660          
1 59642U 24082M   25137.51189548  .00000114  00000+0  13679-4 0  9996
2 59642  43.0024 332.0875 0001230 287.3501  72.7217 15.27580198 60177
STARLINK-31800          
1 59643U 24082N   25137.05827494  .00000769  00000+0  37460-4 0  9995
2 59643  43.0035  15.2100 0001142 252.2310 107.8417 15.27577731 59542
STARLINK-31789          
1 59644U 24082P   25137.35950935  .00041807  00000+0  15185-2 0  9992
2 59644  43.0028  13.1913 0002558 273.8092  86.2467 15.27614970 59690
STARLINK-31795          
1 59645U 24082Q   25137.52007864  .00000590  00000+0  21394-4 0  9991
2 59645  43.0044 320.8788 0001871 256.2716 103.7932 15.40701253 60108
STARLINK-31796          
1 59646U 24082R   25137.36594038 -.00000624  00000+0 -13178-4 0  9999
2 59646  43.0003  13.2371 0000383 286.8437  73.2372 15.27573519 59655
STARLINK-31801          
1 59647U 24082S   25136.94549600  .00000444  00000+0  25650-4 0  9994
2 59647  43.0037  16.0965 0001094 274.8603  85.2123 15.27578038 59473
STARLINK-31790          
1 59648U 24082T   25137.55042077  .00094641  00000+0  20655-2 0  9999
2 59648  42.9913 317.0558 0000849 330.3898  29.6911 15.43191980 60135
STARLINK-31787          
1 59650U 24082V   25137.36979283 -.00000234  00000+0  99271-6 0  9999
2 59650  43.0047  13.2615 0000388 237.8310 122.2504 15.27575833 59697
STARLINK-31277          
1 59651U 24082W   25137.37749613  .00001661  00000+0  69884-4 0  9992
2 59651  43.0059  13.3260 0001526 282.1354  77.9327 15.27576689 59693
STARLINK-31799          
1 59652U 24082X   25137.61094493 -.00017157  00000+0 -61372-3 0  9991
2 59652  43.0024   1.2342 0001689 259.2574 100.8088 15.27666906 59706
STARLINK-31764          
1 59653U 24082Y   25137.35565546  .00000232  00000+0  17963-4 0  9997
2 59653  43.0019  13.1589 0000985 276.1634  83.9105 15.27578376 59691
STARLINK-31589          
1 59654U 24084A   25137.08716007 -.00001031  00000+0 -27977-4 0  9996
2 59654  43.0006 276.6823 0000394 270.6701  89.4105 15.27568130 59039
STARLINK-31665          
1 59655U 24084B   25137.42227325  .00005526  00000+0  21034-3 0  9993
2 59655  43.0025 271.4406 0001277 260.2399  99.8308 15.27554115 59106
STARLINK-31912          
1 59656U 24084C   25137.37696373  .00001565  00000+0  66391-4 0  9996
2 59656  43.0011 275.4208 0000804 269.7890  90.2870 15.27580731 59057
STARLINK-31904          
1 59657U 24084D   25137.43207212  .00000152  00000+0  15053-4 0  9994
2 59657  43.0006 274.9720 0001210 273.6151  86.4562 15.27575147 59062
STARLINK-31858          
1 59658U 24084E   25137.40636889  .00002158  00000+0  87961-4 0  9993
2 59658  43.0022 274.7728 0002029 260.4322  99.6300 15.27563370 59061
STARLINK-31881          
1 59659U 24084F   25137.35174544  .00001232  00000+0  54254-4 0  9994
2 59659  42.9994 271.7651 0000112 256.3182 103.7657 15.27577273 59091
STARLINK-31885          
1 59660U 24084G   25137.42999055  .00001513  00000+0  64552-4 0  9990
2 59660  43.0045 271.4949 0001594 273.1894  86.8775 15.27561453 59108
STARLINK-31880          
1 59661U 24084H   25137.35046415  .00000159  00000+0  15296-4 0  9992
2 59661  43.0020 271.7554 0000963 245.5914 114.4837 15.27574095 59093
STARLINK-31886          
1 59662U 24084J   25137.43848665 -.00010912  00000+0 -38689-3 0  9999
2 59662  43.0033 275.0207 0001609 278.8560  81.2109 15.27636089 59066
STARLINK-31909          
1 59663U 24084K   25137.08973415  .00005800  00000+0  22034-3 0  9998
2 59663  42.9998 276.7429 0000165 271.7565  88.3268 15.27547684 59013
STARLINK-31910          
1 59664U 24084L   25137.41022169  .00001268  00000+0  55593-4 0  9998
2 59664  43.0011 274.7955 0001042 268.6081  91.4651 15.27575082 59066
STARLINK-31902          
1 59666U 24084N   25137.64235743  .00002610  00000+0  10432-3 0  9993
2 59666  43.0017 273.9643 0000993 271.6871  88.3867 15.27582727 59095
STARLINK-31913          
1 59667U 24084P   25137.41199630  .00006276  00000+0  23763-3 0  9996
2 59667  42.9998 271.3555 0000853 310.9953  49.0824 15.27544435 59102
STARLINK-31866          
1 59668U 24084Q   25137.06499985 -.00002400  00000+0 -77801-4 0  9994
2 59668  42.9966 269.5731 0000321  56.0443 304.0439 15.27558471 59094
STARLINK-31917          
1 59669U 24084R   25137.42818189  .00002926  00000+0  11570-3 0  9997
2 59669  42.9997 274.9379 0000516 290.9000  69.1796 15.27603846 59060
STARLINK-31860          
1 59670U 24084S   25137.42612859  .00004721  00000+0  18106-3 0  9992
2 59670  43.0024 271.4615 0000687 295.0383  65.0397 15.27562103 59083
STARLINK-31854          
1 59671U 24084T   25137.57863910 -.00063116  00000+0 -22739-2 0  9996
2 59671  43.0006 241.0459 0001185 234.9807 125.0934 15.28004925 59448
